[{"OBJECT_NAME":"STARLINK-1015","OBJECT_ID":"2019-074J","EPOCH":"2023-11-23T23:55:17.392512","MEAN_MOTION":15.06406197,"ECCENTRICITY":0.0001456,"INCLINATION":53.0553,"RA_OF_ASC_NODE":342.6802,"ARG_OF_PERICENTER":83.5523,"MEAN_ANOMALY":276.5632,"EPHEMERIS_TYPE":0,"CLASSIFICATION_TYPE":"U","NORAD_CAT_ID":44721,"ELEMENT_SET_NO":999,"REV_AT_EPOCH":22280,"BSTAR":-7.6427e-5,"MEAN_MOTION_DOT":-1.42e-5,"MEAN_MOTION_DDOT":0},{"OBJECT_NAME":"STARLINK-1017","OBJECT_ID":"2019-074L","EPOCH":"2023-11-23T08:26:26.432448","MEAN_MOTION":15.06394059,"ECCENTRICITY":0.0001463,"INCLINATION":53.0554,"RA_OF_ASC_NODE":345.5764,"ARG_OF_PERICENTER":87.0382,"MEAN_ANOMALY":273.0775,"EPHEMERIS_TYPE":0,"CLASSIFICATION_TYPE":"U","NORAD_CAT_ID":44723,"ELEMENT_SET_NO":999,"REV_AT_EPOCH":22254,"BSTAR":4.3408e-5,"MEAN_MOTION_DOT":3.65e-6,"MEAN_MOTION_DDOT":0},{"OBJECT_NAME":"STARLINK-1019","OBJECT_ID":"2019-074M","EPOCH":"2023-11-23T09:08:54.110112","MEAN_MOTION":15.06393715,"ECCENTRICITY":0.0001461,"INCLINATION":53.0546,"RA_OF_ASC_NODE":345.4458,"ARG_OF_PERICENTER":89.1324,"MEAN_ANOMALY":270.9832,"EPHEMERIS_TYPE":0,"CLASSIFICATION_TYPE":"U","NORAD_CAT_ID":44724,"ELEMENT_SET_NO":999,"REV_AT_EPOCH":22254,"BSTAR":1.1256e-5,"MEAN_MOTION_DOT":-1.14e-6,"MEAN_MOTION_DDOT":0},{"OBJECT_NAME":"STARLINK-1020","OBJECT_ID":"2019-074N","EPOCH":"2023-11-23T12:27:56.217888","MEAN_MOTION":15.06392808,"ECCENTRICITY":0.0001275,"INCLINATION":53.0561,"RA_OF_ASC_NODE":4.8246,"ARG_OF_PERICENTER":91.1954,"MEAN_ANOMALY":268.9181,"EPHEMERIS_TYPE":0,"CLASSIFICATION_TYPE":"U","NORAD_CAT_ID":44725,"ELEMENT_SET_NO":999,"REV_AT_EPOCH":22245,"BSTAR":-8.4177e-5,"MEAN_MOTION_DOT":-1.535e-5,"MEAN_MOTION_DDOT":0},{"OBJECT_NAME":"STARLINK-1021","OBJECT_ID":"2019-074P","EPOCH":"2023-11-23T10:39:08.438688","MEAN_MOTION":15.06373432,"ECCENTRICITY":0.0001448,"INCLINATION":53.0542,"RA_OF_ASC_NODE":345.1643,"ARG_OF_PERICENTER":81.9387,"MEAN_ANOMALY":278.1766,"EPHEMERIS_TYPE":0,"CLASSIFICATION_TYPE":"U","NORAD_CAT_ID":44726,"ELEMENT_SET_NO":999,"REV_AT_EPOCH":22255,"BSTAR":-8.7596e-5,"MEAN_MOTION_DOT":-1.585e-5,"MEAN_MOTION_DDOT":0},{"OBJECT_NAME":"STARLINK-1024","OBJECT_ID":"2019-074S","EPOCH":"2023-11-23T22:23:50.574336","MEAN_MOTION":15.60258456,"ECCENTRICITY":0.0003527,"INCLINATION":53.0148,"RA_OF_ASC_NODE":248.4108,"ARG_OF_PERICENTER":18.2417,"MEAN_ANOMALY":341.8721,"EPHEMERIS_TYPE":0,"CLASSIFICATION_TYPE":"U","NORAD_CAT_ID":44729,"ELEMENT_SET_NO":999,"REV_AT_EPOCH":22390,"BSTAR":0.00070555,"MEAN_MOTION_DOT":0.0005858,"MEAN_MOTION_DDOT":0},{"OBJECT_NAME":"STARLINK-1027","OBJECT_ID":"2019-074V","EPOCH":"2023-11-23T09:00:55.931904","MEAN_MOTION":15.06388505,"ECCENTRICITY":0.0001998,"INCLINATION":53.0562,"RA_OF_ASC_NODE":5.4738,"ARG_OF_PERICENTER":93.0204,"MEAN_ANOMALY":267.1014,"EPHEMERIS_TYPE":0,"CLASSIFICATION_TYPE":"U","NORAD_CAT_ID":44732,"ELEMENT_SET_NO":999,"REV_AT_EPOCH":22226,"BSTAR":-0.00011082,"MEAN_MOTION_DOT":-1.931e-5,"MEAN_MOTION_DDOT":0},{"OBJECT_NAME":"STARLINK-1028","OBJECT_ID":"2019-074W","EPOCH":"2023-11-24T00:53:40.555680","MEAN_MOTION":15.06399029,"ECCENTRICITY":0.0001432,"INCLINATION":53.0544,"RA_OF_ASC_NODE":342.4954,"ARG_OF_PERICENTER":86.7844,"MEAN_ANOMALY":273.3308,"EPHEMERIS_TYPE":0,"CLASSIFICATION_TYPE":"U","NORAD_CAT_ID":44733,"ELEMENT_SET_NO":999,"REV_AT_EPOCH":22281,"BSTAR":-3.7183e-5,"MEAN_MOTION_DOT":-8.35e-6,"MEAN_MOTION_DDOT":0},{"OBJECT_NAME":"STARLINK-1029","OBJECT_ID":"2019-074X","EPOCH":"2023-11-24T02:50:25.994688","MEAN_MOTION":15.0642923,"ECCENTRICITY":0.0001823,"INCLINATION":53.0545,"RA_OF_ASC_NODE":262.1317,"ARG_OF_PERICENTER":105.0057,"MEAN_ANOMALY":255.1133,"EPHEMERIS_TYPE":0,"CLASSIFICATION_TYPE":"U","NORAD_CAT_ID":44734,"ELEMENT_SET_NO":999,"REV_AT_EPOCH":22392,"BSTAR":0.0016961,"MEAN_MOTION_DOT":0.00025092,"MEAN_MOTION_DDOT":0},{"OBJECT_NAME":"STARLINK-1030","OBJECT_ID":"2019-074Y","EPOCH":"2023-11-23T09:11:32.611776","MEAN_MOTION":15.06397904,"ECCENTRICITY":0.0001311,"INCLINATION":53.0556,"RA_OF_ASC_NODE":5.4333,"ARG_OF_PERICENTER":116.3114,"MEAN_ANOMALY":243.801,"EPHEMERIS_TYPE":0,"CLASSIFICATION_TYPE":"U","NORAD_CAT_ID":44735,"ELEMENT_SET_NO":999,"REV_AT_EPOCH":22243,"BSTAR":-3.5721e-5,"MEAN_MOTION_DOT":-8.13e-6,"MEAN_MOTION_DDOT":0},{"OBJECT_NAME":"STARLINK-1031","OBJECT_ID":"2019-074Z","EPOCH":"2023-11-24T03:03:43.084800","MEAN_MOTION":15.06399044,"ECCENTRICITY":0.0001242,"INCLINATION":53.0557,"RA_OF_ASC_NODE":2.0948,"ARG_OF_PERICENTER":99.6055,"MEAN_ANOMALY":260.5075,"EPHEMERIS_TYPE":0,"CLASSIFICATION_TYPE":"U","NORAD_CAT_ID":44736,"ELEMENT_SET_NO":999,"REV_AT_EPOCH":22255,"BSTAR":0.00057834,"MEAN_MOTION_DOT":8.343e-5,"MEAN_MOTION_DDOT":0},{"OBJECT_NAME":"STARLINK-1032","OBJECT_ID":"2019-074AA","EPOCH":"2023-11-23T08:13:09.762240","MEAN_MOTION":15.06398835,"ECCENTRICITY":0.0001402,"INCLINATION":53.0555,"RA_OF_ASC_NODE":5.6183,"ARG_OF_PERICENTER":91.0279,"MEAN_ANOMALY":269.087,"EPHEMERIS_TYPE":0,"CLASSIFICATION_TYPE":"U","NORAD_CAT_ID":44737,"ELEMENT_SET_NO":999,"REV_AT_EPOCH":22243,"BSTAR":7.2964e-5,"MEAN_MOTION_DOT":8.05e-6,"MEAN_MOTION_DDOT":0},{"OBJECT_NAME":"STARLINK-1035","OBJECT_ID":"2019-074AD","EPOCH":"2023-11-23T22:27:43.011072","MEAN_MOTION":15.06386474,"ECCENTRICITY":0.000153,"INCLINATION":53.0558,"RA_OF_ASC_NODE":2.9564,"ARG_OF_PERICENTER":105.0395,"MEAN_ANOMALY":255.0763,"EPHEMERIS_TYPE":0,"CLASSIFICATION_TYPE":"U","NORAD_CAT_ID":44740,"ELEMENT_SET_NO":999,"REV_AT_EPOCH":22252,"BSTAR":0.00042822,"MEAN_MOTION_DOT":6.1e-5,"MEAN_MOTION_DDOT":0},{"OBJECT_NAME":"STARLINK-1036","OBJECT_ID":"2019-074AE","EPOCH":"2023-11-24T01:54:42.902208","MEAN_MOTION":15.06385913,"ECCENTRICITY":0.0001793,"INCLINATION":53.0565,"RA_OF_ASC_NODE":2.3059,"ARG_OF_PERICENTER":130.4086,"MEAN_ANOMALY":229.7059,"EPHEMERIS_TYPE":0,"CLASSIFICATION_TYPE":"U","NORAD_CAT_ID":44741,"ELEMENT_SET_NO":999,"REV_AT_EPOCH":22254,"BSTAR":0.00012006,"MEAN_MOTION_DOT":1.506e-5,"MEAN_MOTION_DDOT":0},{"OBJECT_NAME":"STARLINK-1038","OBJECT_ID":"2019-074AG","EPOCH":"2023-11-24T03:06:22.733856","MEAN_MOTION":15.06381606,"ECCENTRICITY":0.0001562,"INCLINATION":53.0561,"RA_OF_ASC_NODE":22.0866,"ARG_OF_PERICENTER":63.8084,"MEAN_ANOMALY":296.3065,"EPHEMERIS_TYPE":0,"CLASSIFICATION_TYPE":"U","NORAD_CAT_ID":44743,"ELEMENT_SET_NO":999,"REV_AT_EPOCH":22227,"BSTAR":0.00048831,"MEAN_MOTION_DOT":6.996e-5,"MEAN_MOTION_DDOT":0},{"OBJECT_NAME":"STARLINK-1039","OBJECT_ID":"2019-074AH","EPOCH":"2023-11-24T03:22:18.101856","MEAN_MOTION":15.06388996,"ECCENTRICITY":0.0001253,"INCLINATION":53.0559,"RA_OF_ASC_NODE":22.0348,"ARG_OF_PERICENTER":99.5177,"MEAN_ANOMALY":260.5953,"EPHEMERIS_TYPE":0,"CLASSIFICATION_TYPE":"U","NORAD_CAT_ID":44744,"ELEMENT_SET_NO":999,"REV_AT_EPOCH":22227,"BSTAR":0.00035581,"MEAN_MOTION_DOT":5.021e-5,"MEAN_MOTION_DDOT":0},{"OBJECT_NAME":"STARLINK-1041","OBJECT_ID":"2019-074AK","EPOCH":"2023-11-24T03:01:04.233216","MEAN_MOTION":15.06385854,"ECCENTRICITY":0.0001414,"INCLINATION":53.0562,"RA_OF_ASC_NODE":22.104,"ARG_OF_PERICENTER":69.4968,"MEAN_ANOMALY":290.6173,"EPHEMERIS_TYPE":0,"CLASSIFICATION_TYPE":"U","NORAD_CAT_ID":44746,"ELEMENT_SET_NO":999,"REV_AT_EPOCH":22227,"BSTAR":0.00064056,"MEAN_MOTION_DOT":9.269e-5,"MEAN_MOTION_DDOT":0},{"OBJECT_NAME":"STARLINK-1042","OBJECT_ID":"2019-074AL","EPOCH":"2023-11-24T03:43:31.954080","MEAN_MOTION":15.06380633,"ECCENTRICITY":0.0001346,"INCLINATION":53.0554,"RA_OF_ASC_NODE":21.9662,"ARG_OF_PERICENTER":98.8456,"MEAN_ANOMALY":261.2685,"EPHEMERIS_TYPE":0,"CLASSIFICATION_TYPE":"U","NORAD_CAT_ID":44747,"ELEMENT_SET_NO":999,"REV_AT_EPOCH":22228,"BSTAR":7.4268e-5,"MEAN_MOTION_DOT":8.24e-6,"MEAN_MOTION_DDOT":0},{"OBJECT_NAME":"STARLINK-1043","OBJECT_ID":"2019-074AM","EPOCH":"2023-11-23T14:06:07.628256","MEAN_MOTION":15.0639286,"ECCENTRICITY":0.0001216,"INCLINATION":53.0552,"RA_OF_ASC_NODE":24.5193,"ARG_OF_PERICENTER":64.3258,"MEAN_ANOMALY":295.7856,"EPHEMERIS_TYPE":0,"CLASSIFICATION_TYPE":"U","NORAD_CAT_ID":44748,"ELEMENT_SET_NO":999,"REV_AT_EPOCH":22219,"BSTAR":0.00042634,"MEAN_MOTION_DOT":6.073e-5,"MEAN_MOTION_DDOT":0},{"OBJECT_NAME":"STARLINK-1046","OBJECT_ID":"2019-074AQ","EPOCH":"2023-11-23T12:51:49.116096","MEAN_MOTION":15.06386265,"ECCENTRICITY":0.0001225,"INCLINATION":53.0545,"RA_OF_ASC_NODE":24.7449,"ARG_OF_PERICENTER":90.9725,"MEAN_ANOMALY":269.1404,"EPHEMERIS_TYPE":0,"CLASSIFICATION_TYPE":"U","NORAD_CAT_ID":44751,"ELEMENT_SET_NO":999,"REV_AT_EPOCH":22218,"BSTAR":-0.00027987,"MEAN_MOTION_DOT":-4.446e-5,"MEAN_MOTION_DDOT":0},{"OBJECT_NAME":"STARLINK-1047","OBJECT_ID":"2019-074AR","EPOCH":"2023-11-23T10:09:56.011680","MEAN_MOTION":15.0639494,"ECCENTRICITY":0.0001461,"INCLINATION":53.0546,"RA_OF_ASC_NODE":5.2541,"ARG_OF_PERICENTER":85.8817,"MEAN_ANOMALY":274.2339,"EPHEMERIS_TYPE":0,"CLASSIFICATION_TYPE":"U","NORAD_CAT_ID":44752,"ELEMENT_SET_NO":999,"REV_AT_EPOCH":22227,"BSTAR":-0.00021215,"MEAN_MOTION_DOT":-3.44e-5,"MEAN_MOTION_DDOT":0},{"OBJECT_NAME":"STARLINK-1048","OBJECT_ID":"2019-074AS","EPOCH":"2023-11-23T08:42:23.641632","MEAN_MOTION":15.06406316,"ECCENTRICITY":0.0001307,"INCLINATION":53.0548,"RA_OF_ASC_NODE":345.5275,"ARG_OF_PERICENTER":96.3708,"MEAN_ANOMALY":263.743,"EPHEMERIS_TYPE":0,"CLASSIFICATION_TYPE":"U","NORAD_CAT_ID":44753,"ELEMENT_SET_NO":999,"REV_AT_EPOCH":22254,"BSTAR":0.00074907,"MEAN_MOTION_DOT":0.00010895,"MEAN_MOTION_DDOT":0},{"OBJECT_NAME":"STARLINK-1052","OBJECT_ID":"2019-074AW","EPOCH":"2023-11-24T02:08:32.681760","MEAN_MOTION":15.10904905,"ECCENTRICITY":0.0001909,"INCLINATION":53.0562,"RA_OF_ASC_NODE":0.79,"ARG_OF_PERICENTER":353.3572,"MEAN_ANOMALY":6.7394,"EPHEMERIS_TYPE":0,"CLASSIFICATION_TYPE":"U","NORAD_CAT_ID":44757,"ELEMENT_SET_NO":999,"REV_AT_EPOCH":22256,"BSTAR":0.0010674,"MEAN_MOTION_DOT":0.00017734,"MEAN_MOTION_DDOT":0}]
